ISS (ZARYA)             
1 25544U 98067A   26036.50214262  .00012860  00000+0  24571-3 0  9997
2 25544  51.6316 231.4727 0011154  67.3664 292.8503 15.48414003551341
CSS (TIANHE)            
1 48274U 21035A   26036.70484920  .00033602  00000+0  41781-3 0  9994
2 48274  41.4677  42.5669 0005508   7.6510 352.4412 15.59253081272613
ISS (NAUKA)             
1 49044U 21066A   26036.50214262  .00012860  00000+0  24571-3 0  9993
2 49044  51.6316 231.4727 0011154  67.3664 292.8503 15.48414003230447
FREGAT DEB              
1 49271U 11037PF  26036.33500904  .00055371  00000+0  93522-1 0  9998
2 49271  51.6559  37.5500 0926622 345.1637  12.3633 12.37884067208680
CSS (WENTIAN)           
1 53239U 22085A   26036.70484920  .00033602  00000+0  41781-3 0  9997
2 53239  41.4677  42.5669 0005508   7.6510 352.4412 15.59253081173845
CSS (MENGTIAN)          
1 54216U 22143A   26036.70484920  .00033602  00000+0  41781-3 0  9998
2 54216  41.4677  42.5669 0005508   7.6510 352.4412 15.59253081158642
PROGRESS-MS 31          
1 64751U 25146A   26036.50214262  .00012860  00000+0  24571-3 0  9998
2 64751  51.6316 231.4727 0011154  67.3664 292.8503 15.48414003  6754
TIANZHOU-9              
1 64786U 25149A   26036.70484920  .00033602  00000+0  41781-3 0  9990
2 64786  41.4677  42.5669 0005508   7.6510 352.4412 15.59253081255306
DRAGON CRS-33           
1 65304U 25186A   26036.50214262  .00012860  00000+0  24571-3 0  9997
2 65304  51.6316 231.4727 0011154  67.3664 292.8503 15.48414003   113
PROGRESS-MS 32          
1 65586U 25204A   26036.50214262  .00012860  00000+0  24571-3 0  9990
2 65586  51.6316 231.4727 0011154  67.3664 292.8503 15.48414003   272
CYGNUS NG-23            
1 65616U 25208A   26036.50214262  .00012860  00000+0  24571-3 0  9998
2 65616  51.6316 231.4727 0011154  67.3664 292.8503 15.48414003   221
1998-067XK              
1 65731U 98067XK  26036.69301661  .00320007  00000+0  14207-2 0  9998
2 65731  51.6230 215.4526 0003526 244.0744 115.9896 15.82920538 21798
