CCSDS_OMM_VERS = 2.0
CREATION_DATE  = 
ORIGINATOR     = 

OBJECT_NAME    = ISS (ZARYA)
OBJECT_ID      = 1998-067A
CENTER_NAME    = EARTH
REF_FRAME      = TEME
TIME_SYSTEM    = UTC
MEAN_ELEMENT_THEORY = SGP/SGP4

EPOCH          = 2026-02-05T12:03:05.122368
MEAN_MOTION    = 15.48414003
ECCENTRICITY   = .00111547
INCLINATION    = 51.6316
RA_OF_ASC_NODE = 231.4727
ARG_OF_PERICENTER = 67.3664
MEAN_ANOMALY   = 292.8503

EPHEMERIS_TYPE = 0
CLASSIFICATION_TYPE = U
NORAD_CAT_ID   = 25544
ELEMENT_SET_NO = 999
REV_AT_EPOCH   = 55134
BSTAR          = .24571181E-3
MEAN_MOTION_DOT = .1286E-3
MEAN_MOTION_DDOT = 0

CCSDS_OMM_VERS = 2.0
CREATION_DATE  = 
ORIGINATOR     = 

OBJECT_NAME    = CSS (TIANHE)
OBJECT_ID      = 2021-035A
CENTER_NAME    = EARTH
REF_FRAME      = TEME
TIME_SYSTEM    = UTC
MEAN_ELEMENT_THEORY = SGP/SGP4

EPOCH          = 2026-02-05T16:54:58.970880
MEAN_MOTION    = 15.59253081
ECCENTRICITY   = .00055086
INCLINATION    = 41.4677
RA_OF_ASC_NODE = 42.5669
ARG_OF_PERICENTER = 7.6510
MEAN_ANOMALY   = 352.4412

EPHEMERIS_TYPE = 0
CLASSIFICATION_TYPE = U
NORAD_CAT_ID   = 48274
ELEMENT_SET_NO = 999
REV_AT_EPOCH   = 27261
BSTAR          = .41781313E-3
MEAN_MOTION_DOT = .33602E-3
MEAN_MOTION_DDOT = 0

CCSDS_OMM_VERS = 2.0
CREATION_DATE  = 
ORIGINATOR     = 

OBJECT_NAME    = ISS (NAUKA)
OBJECT_ID      = 2021-066A
CENTER_NAME    = EARTH
REF_FRAME      = TEME
TIME_SYSTEM    = UTC
MEAN_ELEMENT_THEORY = SGP/SGP4

EPOCH          = 2026-02-05T12:03:05.122368
MEAN_MOTION    = 15.48414003
ECCENTRICITY   = .00111547
INCLINATION    = 51.6316
RA_OF_ASC_NODE = 231.4727
ARG_OF_PERICENTER = 67.3664
MEAN_ANOMALY   = 292.8503

EPHEMERIS_TYPE = 0
CLASSIFICATION_TYPE = U
NORAD_CAT_ID   = 49044
ELEMENT_SET_NO = 999
REV_AT_EPOCH   = 23044
BSTAR          = .24571181E-3
MEAN_MOTION_DOT = .1286E-3
MEAN_MOTION_DDOT = 0

CCSDS_OMM_VERS = 2.0
CREATION_DATE  = 
ORIGINATOR     = 

OBJECT_NAME    = FREGAT DEB
OBJECT_ID      = 2011-037PF
CENTER_NAME    = EARTH
REF_FRAME      = TEME
TIME_SYSTEM    = UTC
MEAN_ELEMENT_THEORY = SGP/SGP4

EPOCH          = 2026-02-05T08:02:24.781056
MEAN_MOTION    = 12.37884067
ECCENTRICITY   = .09266224
INCLINATION    = 51.6559
RA_OF_ASC_NODE = 37.5500
ARG_OF_PERICENTER = 345.1637
MEAN_ANOMALY   = 12.3633

EPHEMERIS_TYPE = 0
CLASSIFICATION_TYPE = U
NORAD_CAT_ID   = 49271
ELEMENT_SET_NO = 999
REV_AT_EPOCH   = 20868
BSTAR          = .93521946E-1
MEAN_MOTION_DOT = .55371E-3
MEAN_MOTION_DDOT = 0

CCSDS_OMM_VERS = 2.0
CREATION_DATE  = 
ORIGINATOR     = 

OBJECT_NAME    = CSS (WENTIAN)
OBJECT_ID      = 2022-085A
CENTER_NAME    = EARTH
REF_FRAME      = TEME
TIME_SYSTEM    = UTC
MEAN_ELEMENT_THEORY = SGP/SGP4

EPOCH          = 2026-02-05T16:54:58.970880
MEAN_MOTION    = 15.59253081
ECCENTRICITY   = .00055086
INCLINATION    = 41.4677
RA_OF_ASC_NODE = 42.5669
ARG_OF_PERICENTER = 7.6510
MEAN_ANOMALY   = 352.4412

EPHEMERIS_TYPE = 0
CLASSIFICATION_TYPE = U
NORAD_CAT_ID   = 53239
ELEMENT_SET_NO = 999
REV_AT_EPOCH   = 17384
BSTAR          = .41781313E-3
MEAN_MOTION_DOT = .33602E-3
MEAN_MOTION_DDOT = 0

CCSDS_OMM_VERS = 2.0
CREATION_DATE  = 
ORIGINATOR     = 

OBJECT_NAME    = CSS (MENGTIAN)
OBJECT_ID      = 2022-143A
CENTER_NAME    = EARTH
REF_FRAME      = TEME
TIME_SYSTEM    = UTC
MEAN_ELEMENT_THEORY = SGP/SGP4

EPOCH          = 2026-02-05T16:54:58.970880
MEAN_MOTION    = 15.59253081
ECCENTRICITY   = .00055086
INCLINATION    = 41.4677
RA_OF_ASC_NODE = 42.5669
ARG_OF_PERICENTER = 7.6510
MEAN_ANOMALY   = 352.4412

EPHEMERIS_TYPE = 0
CLASSIFICATION_TYPE = U
NORAD_CAT_ID   = 54216
ELEMENT_SET_NO = 999
REV_AT_EPOCH   = 15864
BSTAR          = .41781313E-3
MEAN_MOTION_DOT = .33602E-3
MEAN_MOTION_DDOT = 0

CCSDS_OMM_VERS = 2.0
CREATION_DATE  = 
ORIGINATOR     = 

OBJECT_NAME    = PROGRESS-MS 31
OBJECT_ID      = 2025-146A
CENTER_NAME    = EARTH
REF_FRAME      = TEME
TIME_SYSTEM    = UTC
MEAN_ELEMENT_THEORY = SGP/SGP4

EPOCH          = 2026-02-05T12:03:05.122368
MEAN_MOTION    = 15.48414003
ECCENTRICITY   = .00111547
INCLINATION    = 51.6316
RA_OF_ASC_NODE = 231.4727
ARG_OF_PERICENTER = 67.3664
MEAN_ANOMALY   = 292.8503

EPHEMERIS_TYPE = 0
CLASSIFICATION_TYPE = U
NORAD_CAT_ID   = 64751
ELEMENT_SET_NO = 999
REV_AT_EPOCH   = 675
BSTAR          = .24571181E-3
MEAN_MOTION_DOT = .1286E-3
MEAN_MOTION_DDOT = 0

CCSDS_OMM_VERS = 2.0
CREATION_DATE  = 
ORIGINATOR     = 

OBJECT_NAME    = TIANZHOU-9
OBJECT_ID      = 2025-149A
CENTER_NAME    = EARTH
REF_FRAME      = TEME
TIME_SYSTEM    = UTC
MEAN_ELEMENT_THEORY = SGP/SGP4

EPOCH          = 2026-02-05T16:54:58.970880
MEAN_MOTION    = 15.59253081
ECCENTRICITY   = .00055086
INCLINATION    = 41.4677
RA_OF_ASC_NODE = 42.5669
ARG_OF_PERICENTER = 7.6510
MEAN_ANOMALY   = 352.4412

EPHEMERIS_TYPE = 0
CLASSIFICATION_TYPE = U
NORAD_CAT_ID   = 64786
ELEMENT_SET_NO = 999
REV_AT_EPOCH   = 25530
BSTAR          = .41781313E-3
MEAN_MOTION_DOT = .33602E-3
MEAN_MOTION_DDOT = 0

CCSDS_OMM_VERS = 2.0
CREATION_DATE  = 
ORIGINATOR     = 

OBJECT_NAME    = DRAGON CRS-33
OBJECT_ID      = 2025-186A
CENTER_NAME    = EARTH
REF_FRAME      = TEME
TIME_SYSTEM    = UTC
MEAN_ELEMENT_THEORY = SGP/SGP4

EPOCH          = 2026-02-05T12:03:05.122368
MEAN_MOTION    = 15.48414003
ECCENTRICITY   = .00111547
INCLINATION    = 51.6316
RA_OF_ASC_NODE = 231.4727
ARG_OF_PERICENTER = 67.3664
MEAN_ANOMALY   = 292.8503

EPHEMERIS_TYPE = 0
CLASSIFICATION_TYPE = U
NORAD_CAT_ID   = 65304
ELEMENT_SET_NO = 999
REV_AT_EPOCH   = 11
BSTAR          = .24571181E-3
MEAN_MOTION_DOT = .1286E-3
MEAN_MOTION_DDOT = 0

CCSDS_OMM_VERS = 2.0
CREATION_DATE  = 
ORIGINATOR     = 

OBJECT_NAME    = PROGRESS-MS 32
OBJECT_ID      = 2025-204A
CENTER_NAME    = EARTH
REF_FRAME      = TEME
TIME_SYSTEM    = UTC
MEAN_ELEMENT_THEORY = SGP/SGP4

EPOCH          = 2026-02-05T12:03:05.122368
MEAN_MOTION    = 15.48414003
ECCENTRICITY   = .00111547
INCLINATION    = 51.6316
RA_OF_ASC_NODE = 231.4727
ARG_OF_PERICENTER = 67.3664
MEAN_ANOMALY   = 292.8503

EPHEMERIS_TYPE = 0
CLASSIFICATION_TYPE = U
NORAD_CAT_ID   = 65586
ELEMENT_SET_NO = 999
REV_AT_EPOCH   = 27
BSTAR          = .24571181E-3
MEAN_MOTION_DOT = .1286E-3
MEAN_MOTION_DDOT = 0

CCSDS_OMM_VERS = 2.0
CREATION_DATE  = 
ORIGINATOR     = 

OBJECT_NAME    = CYGNUS NG-23
OBJECT_ID      = 2025-208A
CENTER_NAME    = EARTH
REF_FRAME      = TEME
TIME_SYSTEM    = UTC
MEAN_ELEMENT_THEORY = SGP/SGP4

EPOCH          = 2026-02-05T12:03:05.122368
MEAN_MOTION    = 15.48414003
ECCENTRICITY   = .00111547
INCLINATION    = 51.6316
RA_OF_ASC_NODE = 231.4727
ARG_OF_PERICENTER = 67.3664
MEAN_ANOMALY   = 292.8503

EPHEMERIS_TYPE = 0
CLASSIFICATION_TYPE = U
NORAD_CAT_ID   = 65616
ELEMENT_SET_NO = 999
REV_AT_EPOCH   = 22
BSTAR          = .24571181E-3
MEAN_MOTION_DOT = .1286E-3
MEAN_MOTION_DDOT = 0

CCSDS_OMM_VERS = 2.0
CREATION_DATE  = 
ORIGINATOR     = 

OBJECT_NAME    = 1998-067XK
OBJECT_ID      = 1998-067XK
CENTER_NAME    = EARTH
REF_FRAME      = TEME
TIME_SYSTEM    = UTC
MEAN_ELEMENT_THEORY = SGP/SGP4

EPOCH          = 2026-02-05T16:37:56.635104
MEAN_MOTION    = 15.82920538
ECCENTRICITY   = .00035264
INCLINATION    = 51.6230
RA_OF_ASC_NODE = 215.4526
ARG_OF_PERICENTER = 244.0744
MEAN_ANOMALY   = 115.9896

EPHEMERIS_TYPE = 0
CLASSIFICATION_TYPE = U
NORAD_CAT_ID   = 65731
ELEMENT_SET_NO = 999
REV_AT_EPOCH   = 2179
BSTAR          = .14207026E-2
MEAN_MOTION_DOT = .320007E-2
MEAN_MOTION_DDOT = 0

